start=new Date('2021-11-17T00:00:00.000Z').valueOf();
sats=[{"RCS_SIZE":"LARGE","ECCENTRICITY":"0.00040570","OBJECT_ID":"2021-082K","LAUNCH_DATE":"2021-09-14","MEAN_MOTION":"15.69825009","DECAY_DATE":null,"EPHEMERIS_TYPE":"0","TLE_LINE1":"1 49139U 21082K   21320.58334491 -.00106964  00000-0 -90269-3 0  9991","MEAN_ANOMALY":"9.1514","FILE":"3216827","BSTAR":"-0.00090269000000","REF_FRAME":"TEME","MEAN_MOTION_DOT":"-0.00106964","TLE_LINE2":"2 49139  69.9971 308.5076 0004057 290.0499   9.1514 15.69825009  3689","INCLINATION":"69.9971","APOAPSIS":"362.133","SEMIMAJOR_AXIS":"6737.535","CLASSIFICATION_TYPE":"U","MEAN_MOTION_DDOT":"0.0000000000000","PERIAPSIS":"356.666","OBJECT_NAME":"STARLINK-3057","SITE":"AFWTR","RA_OF_ASC_NODE":"308.5076","GP_ID":"189883021","ELEMENT_SET_NO":"999","EPOCH":"2021-11-16T14:00:01.000224","TIME_SYSTEM":"UTC","CENTER_NAME":"EARTH","MEAN_ELEMENT_THEORY":"SGP4","PERIOD":"91.730","NORAD_CAT_ID":"49139","ARG_OF_PERICENTER":"290.0499","OBJECT_TYPE":"PAYLOAD","COUNTRY_CODE":"US","REV_AT_EPOCH":"368"},{"RCS_SIZE":"LARGE","ECCENTRICITY":"0.00038480","OBJECT_ID":"2021-082L","LAUNCH_DATE":"2021-09-14","EPHEMERIS_TYPE":"0","TLE_LINE1":"1 49140U 21082L   21320.58334491 -.00032600  00000-0 -27203-3 0  9996","MEAN_MOTION":"15.69775761","DECAY_DATE":null,"PERIAPSIS":"356.948","MEAN_MOTION_DDOT":"0.0000000000000","OBJECT_NAME":"STARLINK-3118","SITE":"AFWTR","RA_OF_ASC_NODE":"308.5031","GP_ID":"189883144","ELEMENT_SET_NO":"999","FILE":"3216827","MEAN_ANOMALY":"15.4521","BSTAR":"-0.00027203000000","REF_FRAME":"TEME","MEAN_MOTION_DOT":"-0.00032600","TLE_LINE2":"2 49140  69.9979 308.5031 0003848 290.1090  15.4521 15.69775761  3682","APOAPSIS":"362.133","INCLINATION":"69.9979","SEMIMAJOR_AXIS":"6737.676","CLASSIFICATION_TYPE":"U","PERIOD":"91.733","NORAD_CAT_ID":"49140","ARG_OF_PERICENTER":"290.1090","COUNTRY_CODE":"US","OBJECT_TYPE":"PAYLOAD","REV_AT_EPOCH":"368","EPOCH":"2021-11-16T14:00:01.000224","TIME_SYSTEM":"UTC","CENTER_NAME":"EARTH","MEAN_ELEMENT_THEORY":"SGP4"},{"RCS_SIZE":"LARGE","ECCENTRICITY":"0.00033650","OBJECT_ID":"2021-082M","LAUNCH_DATE":"2021-09-14","EPHEMERIS_TYPE":"0","TLE_LINE1":"1 49141U 21082M   21320.58334491 -.00661483  00000-0 -88266-2 0  9999","MEAN_MOTION":"15.60029816","DECAY_DATE":null,"PERIAPSIS":"385.296","MEAN_MOTION_DDOT":"0.0000000000000","OBJECT_NAME":"STARLINK-3093","SITE":"AFWTR","RA_OF_ASC_NODE":"308.6643","ELEMENT_SET_NO":"999","GP_ID":"189882904","FILE":"3216827","MEAN_ANOMALY":"265.4775","BSTAR":"-0.00882660000000","REF_FRAME":"TEME","MEAN_MOTION_DOT":"-0.00661483","TLE_LINE2":"2 49141  69.9997 308.6643 0003365 276.5034 265.4775 15.60029816  3685","APOAPSIS":"389.850","INCLINATION":"69.9997","SEMIMAJOR_AXIS":"6765.708","CLASSIFICATION_TYPE":"U","PERIOD":"92.306","NORAD_CAT_ID":"49141","ARG_OF_PERICENTER":"276.5034","OBJECT_TYPE":"PAYLOAD","COUNTRY_CODE":"US","REV_AT_EPOCH":"368","EPOCH":"2021-11-16T14:00:01.000224","CENTER_NAME":"EARTH","TIME_SYSTEM":"UTC","MEAN_ELEMENT_THEORY":"SGP4"},{"MEAN_MOTION":"15.69794670","DECAY_DATE":null,"EPHEMERIS_TYPE":"0","TLE_LINE1":"1 49142U 21082N   21320.58334491 -.00042186  00000-0 -35268-3 0  9998","RCS_SIZE":"LARGE","ECCENTRICITY":"0.00038310","OBJECT_ID":"2021-082N","LAUNCH_DATE":"2021-09-14","EPOCH":"2021-11-16T14:00:01.000224","TIME_SYSTEM":"UTC","CENTER_NAME":"EARTH","MEAN_ELEMENT_THEORY":"SGP4","PERIOD":"91.732","NORAD_CAT_ID":"49142","ARG_OF_PERICENTER":"294.7195","COUNTRY_CODE":"US","OBJECT_TYPE":"PAYLOAD","REV_AT_EPOCH":"368","FILE":"3216827","MEAN_ANOMALY":"12.9584","BSTAR":"-0.00035268000000","REF_FRAME":"TEME","MEAN_MOTION_DOT":"-0.00042186","TLE_LINE2":"2 49142  69.9985 308.5036 0003831 294.7195  12.9584 15.69794670  3685","INCLINATION":"69.9985","APOAPSIS":"362.068","SEMIMAJOR_AXIS":"6737.621","CLASSIFICATION_TYPE":"U","MEAN_MOTION_DDOT":"0.0000000000000","PERIAPSIS":"356.905","OBJECT_NAME":"STARLINK-3042","SITE":"AFWTR","RA_OF_ASC_NODE":"308.5036","ELEMENT_SET_NO":"999","GP_ID":"189883489"},{"DECAY_DATE":null,"MEAN_MOTION":"15.69786664","TLE_LINE1":"1 49143U 21082P   21320.58334491 -.00031636  00000-0 -26378-3 0  9999","EPHEMERIS_TYPE":"0","OBJECT_ID":"2021-082P","LAUNCH_DATE":"2021-09-14","RCS_SIZE":"LARGE","ECCENTRICITY":"0.00039360","MEAN_ELEMENT_THEORY":"SGP4","EPOCH":"2021-11-16T14:00:01.000224","TIME_SYSTEM":"UTC","CENTER_NAME":"EARTH","ARG_OF_PERICENTER":"291.6387","OBJECT_TYPE":"PAYLOAD","COUNTRY_CODE":"US","REV_AT_EPOCH":"368","PERIOD":"91.732","NORAD_CAT_ID":"49143","INCLINATION":"69.9985","APOAPSIS":"362.161","SEMIMAJOR_AXIS":"6737.644","CLASSIFICATION_TYPE":"U","MEAN_ANOMALY":"18.1965","FILE":"3216827","REF_FRAME":"TEME","BSTAR":"-0.00026378000000","MEAN_MOTION_DOT":"-0.00031636","TLE_LINE2":"2 49143  69.9985 308.5017 0003936 291.6387  18.1965 15.69786664  3685","SITE":"AFWTR","RA_OF_ASC_NODE":"308.5017","ELEMENT_SET_NO":"999","GP_ID":"189883372","MEAN_MOTION_DDOT":"0.0000000000000","PERIAPSIS":"356.857","OBJECT_NAME":"STARLINK-3109"},{"SEMIMAJOR_AXIS":"6765.530","APOAPSIS":"389.656","INCLINATION":"69.9997","CLASSIFICATION_TYPE":"U","BSTAR":"-0.00881020000000","REF_FRAME":"TEME","FILE":"3216827","MEAN_ANOMALY":"279.8961","TLE_LINE2":"2 49144  69.9997 308.6539 0003342 274.2397 279.8961 15.60091278  3681","MEAN_MOTION_DOT":"-0.00661781","RA_OF_ASC_NODE":"308.6539","SITE":"AFWTR","GP_ID":"189882793","ELEMENT_SET_NO":"999","OBJECT_NAME":"STARLINK-3100","PERIAPSIS":"385.134","MEAN_MOTION_DDOT":"0.0000000000000","MEAN_ELEMENT_THEORY":"SGP4","EPOCH":"2021-11-16T14:00:01.000224","CENTER_NAME":"EARTH","TIME_SYSTEM":"UTC","ARG_OF_PERICENTER":"274.2397","REV_AT_EPOCH":"368","COUNTRY_CODE":"US","OBJECT_TYPE":"PAYLOAD","PERIOD":"92.302","NORAD_CAT_ID":"49144","OBJECT_ID":"2021-082Q","LAUNCH_DATE":"2021-09-14","ECCENTRICITY":"0.00033420","RCS_SIZE":"LARGE","DECAY_DATE":null,"MEAN_MOTION":"15.60091278","TLE_LINE1":"1 49144U 21082Q   21320.58334491 -.00661781  00000-0 -88102-2 0  9992","EPHEMERIS_TYPE":"0"},{"EPHEMERIS_TYPE":"0","TLE_LINE1":"1 49145U 21082R   21320.91667824  .00066372  00000-0  55412-3 0  9991","MEAN_MOTION":"15.69714742","DECAY_DATE":null,"RCS_SIZE":"LARGE","ECCENTRICITY":"0.00038130","LAUNCH_DATE":"2021-09-14","OBJECT_ID":"2021-082R","NORAD_CAT_ID":"49145","PERIOD":"91.736","OBJECT_TYPE":"PAYLOAD","COUNTRY_CODE":"US","REV_AT_EPOCH":"1011","ARG_OF_PERICENTER":"285.3346","TIME_SYSTEM":"UTC","CENTER_NAME":"EARTH","EPOCH":"2021-11-16T22:00:00.999936","MEAN_ELEMENT_THEORY":"SGP4","PERIAPSIS":"357.146","MEAN_MOTION_DDOT":"0.0000000000000","OBJECT_NAME":"STARLINK-3119","GP_ID":"189886531","ELEMENT_SET_NO":"999","SITE":"AFWTR","RA_OF_ASC_NODE":"307.5467","MEAN_MOTION_DOT":"0.00066372","TLE_LINE2":"2 49145  69.9971 307.5467 0003813 285.3346 116.1476 15.69714742 10119","FILE":"3216987","MEAN_ANOMALY":"116.1476","BSTAR":"0.00055412000000","REF_FRAME":"TEME","CLASSIFICATION_TYPE":"U","INCLINATION":"69.9971","APOAPSIS":"362.284","SEMIMAJOR_AXIS":"6737.850"},{"APOAPSIS":"362.238","INCLINATION":"69.9983","SEMIMAJOR_AXIS":"6737.859","CLASSIFICATION_TYPE":"U","FILE":"3217032","MEAN_ANOMALY":"113.7280","REF_FRAME":"TEME","BSTAR":"0.00055070000000","MEAN_MOTION_DOT":"0.00065948","TLE_LINE2":"2 49146  69.9983 307.5544 0003730 285.6055 113.7280 15.69711531 11285","SITE":"AFWTR","RA_OF_ASC_NODE":"307.5544","GP_ID":"189887860","ELEMENT_SET_NO":"999","PERIAPSIS":"357.211","MEAN_MOTION_DDOT":"0.0000000000000","OBJECT_NAME":"STARLINK-3116","MEAN_ELEMENT_THEORY":"SGP4","EPOCH":"2021-11-16T22:00:00.999936","CENTER_NAME":"EARTH","TIME_SYSTEM":"UTC","ARG_OF_PERICENTER":"285.6055","COUNTRY_CODE":"US","OBJECT_TYPE":"PAYLOAD","REV_AT_EPOCH":"1128","PERIOD":"91.737","NORAD_CAT_ID":"49146","OBJECT_ID":"2021-082S","LAUNCH_DATE":"2021-09-14","RCS_SIZE":"LARGE","ECCENTRICITY":"0.00037300","DECAY_DATE":null,"MEAN_MOTION":"15.69711531","TLE_LINE1":"1 49146U 21082S   21320.91667824  .00065948  00000-0  55070-3 0  9990","EPHEMERIS_TYPE":"0"},{"REV_AT_EPOCH":"368","COUNTRY_CODE":"US","OBJECT_TYPE":"PAYLOAD","ARG_OF_PERICENTER":"292.5922","NORAD_CAT_ID":"49147","PERIOD":"91.732","MEAN_ELEMENT_THEORY":"SGP4","CENTER_NAME":"EARTH","TIME_SYSTEM":"UTC","EPOCH":"2021-11-16T14:00:01.000224","ELEMENT_SET_NO":"999","GP_ID":"189883022","RA_OF_ASC_NODE":"308.4938","SITE":"AFWTR","OBJECT_NAME":"STARLINK-3071","MEAN_MOTION_DDOT":"0.0000000000000","PERIAPSIS":"356.994","CLASSIFICATION_TYPE":"U","SEMIMAJOR_AXIS":"6737.655","APOAPSIS":"362.047","INCLINATION":"69.9969","TLE_LINE2":"2 49147  69.9969 308.4938 0003750 292.5922  19.3366 15.69782892  3688","MEAN_MOTION_DOT":"-0.00033188","BSTAR":"-0.00027692000000","REF_FRAME":"TEME","MEAN_ANOMALY":"19.3366","FILE":"3216827","TLE_LINE1":"1 49147U 21082T   21320.58334491 -.00033188  00000-0 -27692-3 0  9997","EPHEMERIS_TYPE":"0","DECAY_DATE":null,"MEAN_MOTION":"15.69782892","LAUNCH_DATE":"2021-09-14","OBJECT_ID":"2021-082T","ECCENTRICITY":"0.00037500","RCS_SIZE":"LARGE"},{"MEAN_ELEMENT_THEORY":"SGP4","CENTER_NAME":"EARTH","TIME_SYSTEM":"UTC","EPOCH":"2021-11-16T14:00:01.000224","REV_AT_EPOCH":"368","OBJECT_TYPE":"PAYLOAD","COUNTRY_CODE":"US","ARG_OF_PERICENTER":"292.7702","NORAD_CAT_ID":"49148","PERIOD":"91.731","CLASSIFICATION_TYPE":"U","SEMIMAJOR_AXIS":"6737.605","INCLINATION":"69.9982","APOAPSIS":"361.967","TLE_LINE2":"2 49148  69.9982 308.4859 0003706 292.7702  29.7928 15.69800435  3688","MEAN_MOTION_DOT":"-0.00041038","BSTAR":"-0.00034291000000","REF_FRAME":"TEME","FILE":"3216827","MEAN_ANOMALY":"29.7928","GP_ID":"189883145","ELEMENT_SET_NO":"999","RA_OF_ASC_NODE":"308.4859","SITE":"AFWTR","OBJECT_NAME":"STARLINK-3048","PERIAPSIS":"356.973","MEAN_MOTION_DDOT":"0.0000000000000","DECAY_DATE":null,"MEAN_MOTION":"15.69800435","TLE_LINE1":"1 49148U 21082U   21320.58334491 -.00041038  00000-0 -34291-3 0  9994","EPHEMERIS_TYPE":"0","LAUNCH_DATE":"2021-09-14","OBJECT_ID":"2021-082U","ECCENTRICITY":"0.00037060","RCS_SIZE":"LARGE"}];
